CTC2_L_00079016-03
1 36576U 25179XN  26037.47791667  .00000000  00000+0  00000-0 0  9995
2 36576  85.0000 180.0000 0000000   0.0000   0.0000 15.28598690    15
CTC2_L_00079016-04
1 36577U 22220XM  26037.47791667  .00000000  00000+0  00000-0 0  9990
2 36577  85.0000 180.0000 0000000   0.0000  90.0000 15.28598690    15
CTC2_L_00079017-01
1 36578U 22960X   26037.47791667  .00000000  00000+0  00000-0 0  9992
2 36578  85.0000 192.0000 0000000   0.0000 192.0000 15.28598690    12
CTC2_L_00079017-02
1 36579U 26548ME  26037.47791667  .00000000  00000+0  00000-0 0  9999
2 36579  85.0000 192.0000 0000000   0.0000 282.0000 15.28598690    13
CTC2_L_00079017-03
1 36580U 23204JA  26037.47791667  .00000000  00000+0  00000-0 0  9997
2 36580  85.0000 192.0000 0000000   0.0000  12.0000 15.28598690    16
CTC2_L_00079017-04
1 36581U 24538OE  26037.47791667  .00000000  00000+0  00000-0 0  9999
2 36581  85.0000 192.0000 0000000   0.0000 102.0000 15.28598690    17
CTC2_L_00079018-01
1 36582U 26061LA  26037.47791667  .00000000  00000+0  00000-0 0  9993
2 36582  85.0000 204.0000 0000000   0.0000 204.0000 15.28598690    15
CTC2_L_00079018-02
1 36583U 26251VX  26037.47791667  .00000000  00000+0  00000-0 0  9995
2 36583  85.0000 204.0000 0000000   0.0000 294.0000 15.28598690    15
CTC2_L_00079018-03
1 36584U 24106OI  26037.47791667  .00000000  00000+0  00000-0 0  9993
2 36584  85.0000 204.0000 0000000   0.0000  24.0000 15.28598690    17
CTC2_L_00079018-04
1 36585U 22418KV  26037.47791667  .00000000  00000+0  00000-0 0  9998
2 36585  85.0000 204.0000 0000000   0.0000 114.0000 15.28598690    18
CTC2_L_00079019-01
1 36586U 26820ZM  26037.47791667  .00000000  00000+0  00000-0 0  9990
2 36586  85.0000 216.0000 0000000   0.0000 216.0000 15.28598690    15
CTC2_L_00079019-02
1 36587U 23264BY  26037.47791667  .00000000  00000+0  00000-0 0  9990
2 36587  85.0000 216.0000 0000000   0.0000 306.0000 15.28598690    16
CTC2_L_00079019-03
1 36588U 26651CT  26037.47791667  .00000000  00000+0  00000-0 0  9994
2 36588  85.0000 216.0000 0000000   0.0000  36.0000 15.28598690    17
CTC2_L_00079019-04
1 36589U 26946VB  26037.47791667  .00000000  00000+0  00000-0 0  9992
2 36589  85.0000 216.0000 0000000   0.0000 126.0000 15.28598690    18
CTC2_L_00079020-01
1 36590U 23401XQ  26037.47791667  .00000000  00000+0  00000-0 0  9997
2 36590  85.0000 228.0000 0000000   0.0000 228.0000 15.28598690    16
CTC2_L_00079020-02
1 36591U 24373EP  26037.47791667  .00000000  00000+0  00000-0 0  9997
2 36591  85.0000 228.0000 0000000   0.0000 318.0000 15.28598690    17
CTC2_L_00079020-03
1 36592U 22953SU  26037.47791667  .00000000  00000+0  00000-0 0  9990
2 36592  85.0000 228.0000 0000000   0.0000  48.0000 15.28598690    18
CTC2_L_00079020-04
1 36593U 26488UK  26037.47791667  .00000000  00000+0  00000-0 0  9998
2 36593  85.0000 228.0000 0000000   0.0000 138.0000 15.28598690    19
CTC2_L_00079021-01
1 36594U 23747QH  26037.47791667  .00000000  00000+0  00000-0 0  9994
2 36594  85.0000 240.0000 0000000   0.0000 240.0000 15.28598690    18
CTC2_L_00079021-02
1 36595U 24753BY  26037.47791667  .00000000  00000+0  00000-0 0  9993
2 36595  85.0000 240.0000 0000000   0.0000 330.0000 15.28598690    19
CTC2_L_00079021-03
1 36596U 24250DP  26037.47791667  .00000000  00000+0  00000-0 0  9996
2 36596  85.0000 240.0000 0000000   0.0000  60.0000 15.28598690    10
CTC2_L_00079021-04
1 36597U 24039EV  26037.47791667  .00000000  00000+0  00000-0 0  9992
2 36597  85.0000 240.0000 0000000   0.0000 150.0000 15.28598690    11
CTC2_L_00079022-01
1 36598U 26097VY  26037.47791667  .00000000  00000+0  00000-0 0  9999
2 36598  85.0000 252.0000 0000000   0.0000 252.0000 15.28598690    18
CTC2_L_00079022-02
1 36599U 23356YA  26037.47791667  .00000000  00000+0  00000-0 0  9995
2 36599  85.0000 252.0000 0000000   0.0000 342.0000 15.28598690    19
CTC2_L_00079022-03
1 36600U 25191GT  26037.47791667  .00000000  00000+0  00000-0 0  9997
2 36600  85.0000 252.0000 0000000   0.0000  72.0000 15.28598690    12
CTC2_L_00079022-04
1 36601U 25464AZ  26037.47791667  .00000000  00000+0  00000-0 0  9991
2 36601  85.0000 252.0000 0000000   0.0000 162.0000 15.28598690    13
CTC2_L_00079023-01
1 36602U 22127AN  26037.47791667  .00000000  00000+0  00000-0 0  9995
2 36602  85.0000 264.0000 0000000   0.0000 264.0000 15.28598690    10
CTC2_L_00079023-02
1 36603U 26237DN  26037.47791667  .00000000  00000+0  00000-0 0  9992
2 36603  85.0000 264.0000 0000000   0.0000 354.0000 15.28598690    11
CTC2_L_00079023-03
1 36604U 24141LT  26037.47791667  .00000000  00000+0  00000-0 0  9995
2 36604  85.0000 264.0000 0000000   0.0000  84.0000 15.28598690    12
CTC2_L_00079023-04
1 36605U 26441RY  26037.47791667  .00000000  00000+0  00000-0 0  9991
2 36605  85.0000 264.0000 0000000   0.0000 174.0000 15.28598690    13
CTC2_L_00079024-01
1 36606U 26520U   26037.47791667  .00000000  00000+0  00000-0 0  9990
2 36606  85.0000 276.0000 0000000   0.0000 276.0000 15.28598690    10
CTC2_L_00079024-02
1 36607U 25242EO  26037.47791667  .00000000  00000+0  00000-0 0  9991
2 36607  85.0000 276.0000 0000000   0.0000   6.0000 15.28598690    12
CTC2_L_00079024-03
1 36608U 25254BP  26037.47791667  .00000000  00000+0  00000-0 0  9995
2 36608  85.0000 276.0000 0000000   0.0000  96.0000 15.28598690    12
CTC2_L_00079024-04
1 36609U 25737ZB  26037.47791667  .00000000  00000+0  00000-0 0  9992
2 36609  85.0000 276.0000 0000000   0.0000 186.0000 15.28598690    13
CTC2_L_00079025-01
1 36610U 23495FE  26037.47791667  .00000000  00000+0  00000-0 0  9993
2 36610  85.0000 288.0000 0000000   0.0000 288.0000 15.28598690    11
CTC2_L_00079025-02
1 36611U 24189NT  26037.47791667  .00000000  00000+0  00000-0 0  9995
2 36611  85.0000 288.0000 0000000   0.0000  18.0000 15.28598690    13
CTC2_L_00079025-03
1 36612U 26750VR  26037.47791667  .00000000  00000+0  00000-0 0  9992
2 36612  85.0000 288.0000 0000000   0.0000 108.0000 15.28598690    14
CTC2_L_00079025-04
1 36613U 23487WL  26037.47791667  .00000000  00000+0  00000-0 0  9997
2 36613  85.0000 288.0000 0000000   0.0000 198.0000 15.28598690    14
CTC2_L_00079026-01
1 36614U 25250DI  26037.47791667  .00000000  00000+0  00000-0 0  9998
2 36614  85.0000 300.0000 0000000   0.0000 300.0000 15.28598690    15
CTC2_L_00079026-02
1 36615U 26314KJ  26037.47791667  .00000000  00000+0  00000-0 0  9991
2 36615  85.0000 300.0000 0000000   0.0000  30.0000 15.28598690    16
CTC2_L_00079026-03
1 36616U 22248TB  26037.47791667  .00000000  00000+0  00000-0 0  9994
2 36616  85.0000 300.0000 0000000   0.0000 120.0000 15.28598690    17
CTC2_L_00079026-04
1 36617U 26016G   26037.47791667  .00000000  00000+0  00000-0 0  9992
2 36617  85.0000 300.0000 0000000   0.0000 210.0000 15.28598690    18
CTC2_L_00079027-01
1 36618U 23043JC  26037.47791667  .00000000  00000+0  00000-0 0  9990
2 36618  85.0000 312.0000 0000000   0.0000 312.0000 15.28598690    15
CTC2_L_00079027-02
1 36619U 22749KV  26037.47791667  .00000000  00000+0  00000-0 0  9993
2 36619  85.0000 312.0000 0000000   0.0000  42.0000 15.28598690    16
CTC2_L_00079027-03
1 36620U 26807GG  26037.47791667  .00000000  00000+0  00000-0 0  9994
2 36620  85.0000 312.0000 0000000   0.0000 132.0000 15.28598690    18
CTC2_L_00079027-04
1 36621U 23486FE  26037.47791667  .00000000  00000+0  00000-0 0  9995
2 36621  85.0000 312.0000 0000000   0.0000 222.0000 15.28598690    19
CTC2_L_00079028-01
1 36622U 22989YL  26037.47791667  .00000000  00000+0  00000-0 0  9993
2 36622  85.0000 324.0000 0000000   0.0000 324.0000 15.28598690    16
CTC2_L_00079028-02
1 36623U 25929GN  26037.47791667  .00000000  00000+0  00000-0 0  9991
2 36623  85.0000 324.0000 0000000   0.0000  54.0000 15.28598690    17
CTC2_L_00079028-03
1 36624U 26329YV  26037.47791667  .00000000  00000+0  00000-0 0  9997
2 36624  85.0000 324.0000 0000000   0.0000 144.0000 15.28598690    18
CTC2_L_00079028-04
1 36625U 24870UZ  26037.47791667  .00000000  00000+0  00000-0 0  9997
2 36625  85.0000 324.0000 0000000   0.0000 234.0000 15.28598690    19
CTC2_L_00079029-01
1 36626U 23354U   26037.47791667  .00000000  00000+0  00000-0 0  9994
2 36626  85.0000 336.0000 0000000   0.0000 336.0000 15.28598690    16
CTC2_L_00079029-02
1 36627U 23757WH  26037.47791667  .00000000  00000+0  00000-0 0  9992
2 36627  85.0000 336.0000 0000000   0.0000  66.0000 15.28598690    17
CTC2_L_00079029-03
1 36628U 23492OG  26037.47791667  .00000000  00000+0  00000-0 0  9999
2 36628  85.0000 336.0000 0000000   0.0000 156.0000 15.28598690    18
CTC2_L_00079029-04
1 36629U 25126GD  26037.47791667  .00000000  00000+0  00000-0 0  9996
2 36629  85.0000 336.0000 0000000   0.0000 246.0000 15.28598690    19
CTC2_L_00079030-01
1 36630U 22869ZX  26037.47791667  .00000000  00000+0  00000-0 0  9999
2 36630  85.0000 348.0000 0000000   0.0000 348.0000 15.28598690    17
CTC2_L_00079030-02
1 36631U 25902FQ  26037.47791667  .00000000  00000+0  00000-0 0  9991
2 36631  85.0000 348.0000 0000000   0.0000  78.0000 15.28598690    18
CTC2_L_00079030-03
1 36632U 24876ER  26037.47791667  .00000000  00000+0  00000-0 0  9991
2 36632  85.0000 348.0000 0000000   0.0000 168.0000 15.28598690    19
CTC2_L_00079030-04
1 36633U 24323EI  26037.47791667  .00000000  00000+0  00000-0 0  9999
2 36633  85.0000 348.0000 0000000   0.0000 258.0000 15.28598690    10
